STARLINK-11109 [DTC]    
1 60306U 24133F   24296.56833356 -.00092449  00000+0 -63306-3 0  9990
2 60306  53.1581 106.4026 0008018 315.7599  44.2780 15.74163073 14710
STARLINK-11223 [DTC]    
1 60307U 24133G   24296.55811593 -.00020457  00000+0 -13224-3 0  9993
2 60307  53.1574 106.3320 0004336 219.7675 140.3028 15.74761333 14712
STARLINK-11192 [DTC]    
1 60308U 24133H   24296.56341486 -.00112574  00000+0 -77348-3 0  9993
2 60308  53.1578 106.3680 0000372 245.2883 114.8098 15.74225088 14712
STARLINK-11213 [DTC]    
1 60309U 24133J   24296.29933118 -.00039857  00000+0 -26330-3 0  9990
2 60309  53.1577 107.5562 0001889 167.5147 192.5920 15.74688126 14675
STARLINK-11200 [DTC]    
1 60310U 24133K   24296.54849450 -.00058849  00000+0 -39453-3 0  9997
2 60310  53.1592 106.2651 0003749 221.3658 138.7078 15.74511241 14716
STARLINK-11208 [DTC]    
1 60311U 24133L   24296.48395813  .00006088  00000+0  57817-4 0  9991
2 60311  53.1572 106.5573 0000751  46.8524 313.2556 15.68491832 14709
STARLINK-11206 [DTC]    
1 60312U 24133M   24296.47296606  .00000140  00000+0  60097-5 0  9999
2 60312  53.1565 107.2358 0001060 336.7416  23.3553 15.69717408 14691
STARLINK-11205 [DTC]    
1 60313U 24133N   24295.51302886  .00038143  00000+0  31778-3 0  9998
2 60313  53.1560 111.9123 0001611  99.6489 260.4710 15.69744891 14545
STARLINK-32191          
1 60314U 24133P   24295.90722220  .00009167  00000+0  23871-3 0  9999
2 60314  53.1574 123.1397 0000819 101.4010 258.7087 15.39642191 14487
STARLINK-32194          
1 60315U 24133Q   24296.53291973  .00019538  00000+0  49667-3 0  9990
2 60315  53.1572 120.6476 0001448  96.4503 263.6667 15.39650772 14512
STARLINK-32192          
1 60316U 24133R   24296.01857083  .00001432  00000+0  45762-4 0  9991
2 60316  53.1565 123.1259 0001010  98.3801 261.7318 15.39630032 14529
STARLINK-32189          
1 60317U 24133S   24296.52396323 -.00000720  00000+0 -80187-5 0  9995
2 60317  53.1578 120.5883 0001141 108.0609 252.0520 15.39616633 14606
STARLINK-32190          
1 60318U 24133T   24296.50039373  .00002421  00000+0  70439-4 0  9999
2 60318  53.1589 120.4413 0000794 108.8825 251.2266 15.39641632 14513
STARLINK-32182          
1 60319U 24133U   24295.56880625  .00001706  00000+0  52588-4 0  9999
2 60319  53.1586 125.2951 0000848  90.0611 270.0491 15.39632826 14363
STARLINK-32199          
1 60320U 24133V   24295.92546786 -.00000265  00000+0  33487-5 0  9996
2 60320  53.1608 123.2512 0001185 100.8005 259.3133 15.39624172 14462
STARLINK-32198          
1 60321U 24133W   24296.51898643  .00007135  00000+0  18810-3 0  9998
2 60321  53.1592 120.5577 0000859  66.7739 293.3357 15.39632098 14605
STARLINK-31745          
1 60329U 24136A   24296.20127326  .00003650  00000+0  13526-3 0  9995
2 60329  53.1608 254.6431 0001097 125.3234 234.7870 15.30208415 13786
STARLINK-32153          
1 60330U 24136B   24296.20023388 -.00000546  00000+0 -63044-5 0  9995
2 60330  53.1612 254.6323 0001223 133.8434 226.2668 15.30196078 12578
STARLINK-32203          
1 60331U 24136C   24296.11160351  .00085233  00000+0  26339-2 0  9995
2 60331  53.1585 254.7956 0003274 111.1290 249.0062 15.32809776 12566
STARLINK-32171          
1 60332U 24136D   24296.12543435 -.00002163  00000+0 -60994-4 0  9995
2 60332  53.1626 254.8799 0001538  64.3186 295.7973 15.30167984 12568
STARLINK-32133          
1 60333U 24136E   24296.19389982  .00000190  00000+0  18546-4 0  9990
2 60333  53.1617 254.5947 0001171 109.9013 250.2114 15.30198514 12576
STARLINK-32132          
1 60334U 24136F   24296.18759019 -.00003516  00000+0 -10675-3 0  9993
2 60334  53.1625 254.5612 0001338  93.4493 266.6661 15.30167145 12573
STARLINK-32168          
1 60335U 24136G   24296.18441430 -.00000899  00000+0 -18237-4 0  9993
2 60335  53.1629 254.5385 0001171  82.3958 277.7175 15.30184790 12571
STARLINK-32079          
1 60336U 24136H   24296.11592516  .00000878  00000+0  41771-4 0  9993
2 60336  53.1627 254.8218 0001202  83.5716 276.5421 15.30196959 12568
STARLINK-32078          
1 60338U 24136K   24296.17701527  .00002121  00000+0  83724-4 0  9992
2 60338  53.1621 254.4937 0000876  91.6857 268.4244 15.30189211 12577
STARLINK-32175          
1 60339U 24136L   24296.17490740  .00002291  00000+0  89478-4 0  9995
2 60339  53.1619 254.4802 0001235 113.6270 246.4860 15.30188907 12571
STARLINK-32176          
1 60340U 24136M   24296.17173899  .00002248  00000+0  88033-4 0  9998
2 60340  53.1618 254.4595 0001261 119.3450 240.7677 15.30190375 13748
STARLINK-32185          
1 60341U 24136N   24296.22962744 -.00055974  00000+0 -18994-2 0  9993
2 60341  53.1620 254.1031 0001382 116.3032 243.8111 15.30072569 12583
STARLINK-32221          
1 60342U 24136P   24296.16752070  .00001699  00000+0  69502-4 0  9992
2 60342  53.1627 254.4283 0001269 103.2702 256.8440 15.30188545 12576
STARLINK-32083          
1 60343U 24136Q   24296.16856686  .00001015  00000+0  46391-4 0  9994
2 60343  53.1618 254.4056 0001084 101.0607 259.0515 15.30197009 12573
STARLINK-32077          
1 60344U 24136R   24296.29181103  .00000872  00000+0  41544-4 0  9999
2 60344  53.1615 253.7849 0001312 111.2260 248.8881 15.30204804 12591
STARLINK-32075          
1 60345U 24136S   24296.28759584  .00002735  00000+0  10448-3 0  9991
2 60345  53.1620 253.7541 0001306  98.9192 261.1957 15.30185668 12593
STARLINK-32082          
1 60346U 24136T   24296.28864326  .00000951  00000+0  44214-4 0  9990
2 60346  53.1612 253.7599 0001315 123.9132 236.1994 15.30200939 12593
STARLINK-32084          
1 60347U 24136U   24296.28548242  .00003739  00000+0  13832-3 0  9995
2 60347  53.1617 253.7369 0001536 137.8462 222.2657 15.30194154 12592
STARLINK-32081          
1 60348U 24136V   24296.15168878  .00000651  00000+0  34128-4 0  9997
2 60348  53.1615 254.3244 0001192  94.9359 265.1778 15.30189319 12571
STARLINK-32181          
1 60349U 24136W   24296.20749607 -.00010468  00000+0 -34139-3 0  9999
2 60349  53.1621 253.9650 0001003 146.1074 213.9991 15.30237565 12586
STARLINK-32076          
1 60350U 24136X   24296.21067017  .00000361  00000+0  24322-4 0  9993
2 60350  53.1613 253.9844 0001767 101.3332 258.7867 15.30195367 12583
STARLINK-32097          
1 60351U 24136Y   24296.26966197 -.00000255  00000+0  35124-5 0  9992
2 60351  53.1612 253.6389 0001305 118.8878 241.2254 15.30178055 12593
STARLINK-32285          
1 60355U 24138A   24296.58205532 -.00000182  00000+0  54211-5 0  9999
2 60355  53.1599 131.1720 0000973  95.6192 264.4924 15.39625838 13532
STARLINK-32278          
1 60356U 24138B   24295.93324222  .00003427  00000+0  95669-4 0  9991
2 60356  53.1590 134.2236 0000916  88.4909 271.6200 15.39605029 13439
STARLINK-32287          
1 60358U 24138D   24296.54069177  .00003105  00000+0  87583-4 0  9995
2 60358  53.1597 131.6287 0001218  51.2336 308.8777 15.39614189 13522
STARLINK-32290          
1 60359U 24138E   24296.54035978 -.00001799  00000+0 -34990-4 0  9991
2 60359  53.1592 131.6176 0001517 138.6006 221.5114 15.39625678 13421
STARLINK-32275          
1 60360U 24138F   24296.56813984 -.00000715  00000+0 -79143-5 0  9993
2 60360  53.1596 131.0910 0000974 113.4622 246.6485 15.39607085 13531
STARLINK-32227          
1 60361U 24138G   24296.57310454 -.00000131  00000+0  67137-5 0  9990
2 60361  53.1587 131.1092 0000908 345.4066  14.6912 15.39608284 13541
STARLINK-32256          
1 60362U 24138H   24296.57774112  .00001968  00000+0  59155-4 0  9994
2 60362  53.1590 131.1345 0001276  84.5032 275.6118 15.39624654 13524
STARLINK-32267          
1 60363U 24138J   24295.98422500  .00002154  00000+0  63823-4 0  9995
2 60363  53.1584 133.8445 0000919 118.3279 241.7819 15.39613964 13445
STARLINK-32270          
1 60364U 24138K   24295.55304519 -.00000383  00000+0  40035-6 0  9993
2 60364  53.1594 136.1287 0000938  90.4570 269.6542 15.39612185 13246
STARLINK-32188          
1 60365U 24138L   24295.53413496  .00000688  00000+0  27166-4 0  9992
2 60365  53.1594 136.0113 0001100  95.8635 264.2495 15.39620891 13361
STARLINK-32230          
1 60366U 24138M   24296.53106271  .00001061  00000+0  36475-4 0  9993
2 60366  53.1604 131.5679 0000554  84.0293 276.0775 15.39629097 13520
STARLINK-32243          
1 60367U 24138N   24296.55419618 -.00000234  00000+0  41191-5 0  9992
2 60367  53.1586 130.9940 0001114  84.2217 275.8914 15.39615067 13530
STARLINK-32271          
1 60368U 24138P   24295.95148347  .00003049  00000+0  86180-4 0  9996
2 60368  53.1596 134.3442 0000852  90.4887 269.6215 15.39612732 13437
STARLINK-32266          
1 60369U 24138Q   24296.58334491 -.00767019  00000+0 -15087-1 0  9995
2 60369  53.1600 119.8991 0000977  93.0499 111.9657 15.49090247  6070
STARLINK-32220          
1 60370U 24138R   24295.97460805  .00002560  00000+0  73941-4 0  9995
2 60370  53.1593 133.7817 0001033  57.4440 302.6665 15.39622720 13442
STARLINK-32263          
1 60371U 24138S   24296.52211474  .00002044  00000+0  61035-4 0  9992
2 60371  53.1606 131.5103 0001055   4.4745 355.6269 15.39633532 13425
STARLINK-32268          
1 60372U 24138T   24294.71844595 -.00000643  00000+0 -61106-5 0  9993
2 60372  53.1602 140.1552 0000324 109.0755 251.0285 15.39608616 13238
STARLINK-32223          
1 60373U 24138U   24296.58334491  .00031031  00000+0  78269-3 0  9999
2 60373  53.1575 131.1129 0000714  88.3296 304.6529 15.39616710  5950
STARLINK-32180          
1 60374U 24138V   24296.55452871 -.00008209  00000+0 -19527-3 0  9995
2 60374  53.1591 130.9964 0000927  73.5897 286.5210 15.39649610 13535
STARLINK-32281          
1 60375U 24138W   24296.53140942 -.00000641  00000+0 -60440-5 0  9991
2 60375  53.1587 131.5647 0001708  87.5587 272.5614 15.39616914 13427
STARLINK-32277          
1 60376U 24138X   24296.56380480  .00002014  00000+0  60285-4 0  9998
2 60376  53.1604 131.0570 0000387  88.6753 271.4297 15.39626533 13521
